NORAD_CAT_ID,OBJECT_NAME,OBJECT_TYPE,EPOCH,MEAN_MOTION,ECCENTRICITY,INCLINATION,RA_OF_ASC_NODE,ARG_OF_PERICENTER,MEAN_ANOMALY,BSTAR,MEAN_MOTION_DOT,MEAN_MOTION_DDOT,TLE_LINE0,TLE_LINE1,TLE_LINE2,SEMIMAJOR_AXIS,PERIOD,APOGEE,PERIGEE,DECAYED
56811.0,STARLINK-6063,PAYLOAD,2023-06-21 12:26:07,15.69928905,0.0003736,70.0012,353.5577,270.3875,89.6892,0.00012937,0.00015375,0.0,0 STARLINK-6063,1 56811U 23078AW  23172.51814748  .00015375  00000-0  12937-3 0  9990,2 56811  70.0012 353.5577 0003736 270.3875  89.6892 15.69928905  3648,6737.237,91.724,361.619,356.585,0.0
56811.0,STARLINK-6063,PAYLOAD,2023-06-21 13:57:53,15.69933797,0.0003695,70.0012,353.3785,269.3321,90.7451,0.00017696,0.00021128,0.0,0 STARLINK-6063,1 56811U 23078AW  23172.58186379  .00021128  00000-0  17696-3 0  9999,2 56811  70.0012 353.3785 0003695 269.3321  90.7451 15.69933797  3396,6737.223,91.724,361.578,356.599,0.0
56811.0,STARLINK-6063,PAYLOAD,2023-06-21 18:33:08,15.69947767,0.0003637,70.0016,352.8406,266.7177,93.3603,0.00053208,0.00064324,0.0,0 STARLINK-6063,1 56811U 23078AW  23172.77301211  .00064324  00000-0  53208-3 0  9998,2 56811  70.0016 352.8406 0003637 266.7177  93.3603 15.69947767  3682,6737.183,91.723,361.499,356.598,0.0
56811.0,STARLINK-6063,PAYLOAD,2023-06-21 20:04:53,15.69955174,0.0003658,70.0015,352.6615,266.3186,93.7592,0.00048517,0.00058612,0.0,0 STARLINK-6063,1 56811U 23078AW  23172.83672755  .00058612  00000-0  48517-3 0  9999,2 56811  70.0015 352.6615 0003658 266.3186  93.7592 15.69955174  3435,6737.162,91.722,361.492,356.563,0.0
56811.0,STARLINK-6063,PAYLOAD,2023-06-22 00:40:08,15.69927476,0.000364,70.0013,352.1247,269.7789,90.299,9.2541e-05,0.00010931,0.0,0 STARLINK-6063,1 56811U 23078AW  23173.02788132  .00010931  00000-0  92541-4 0  9997,2 56811  70.0013 352.1247 0003640 269.7789  90.2990 15.69927476  3726,6737.241,91.724,361.559,356.654,0.0
56811.0,STARLINK-6063,PAYLOAD,2023-06-22 05:15:24,15.69946691,0.0003647,70.0014,351.5871,269.8758,90.2019,0.00028346,0.00034043,0.0,0 STARLINK-6063,1 56811U 23078AW  23173.21903011  .00034043  00000-0  28346-3 0  9994,2 56811  70.0014 351.5871 0003647 269.8758  90.2019 15.69946691  3752,6737.187,91.723,361.509,356.594,0.0
56811.0,STARLINK-6063,PAYLOAD,2023-06-22 14:25:55,15.69930496,0.0004229,70.0013,350.5119,268.1248,91.9463,0.00051793,0.00062557,0.0,0 STARLINK-6063,1 56811U 23078AW  23173.60133181  .00062557  00000-0  51793-3 0  9993,2 56811  70.0013 350.5119 0004229 268.1248  91.9463 15.69930496  3812,6737.233,91.724,361.947,356.249,0.0
56811.0,STARLINK-6063,PAYLOAD,2023-06-22 23:36:25,15.69940244,0.0003549,70.0016,349.437,275.2805,84.7986,0.00045867,0.00055342,0.0,0 STARLINK-6063,1 56811U 23078AW  23173.98363101  .00055342  00000-0  45867-3 0  9990,2 56811  70.0016 349.4370 0003549 275.2805  84.7986 15.69940244  3871,6737.205,91.723,361.461,356.679,0.0
56811.0,STARLINK-6063,PAYLOAD,2023-06-23 14:53:57,15.69922766,0.0004862,70.0015,347.6458,291.0655,69.002,0.00034082,0.00040979,0.0,0 STARLINK-6063,1 56811U 23078AW  23174.62080172  .00040979  00000-0  34082-3 0  9993,2 56811  70.0015 347.6458 0004862 291.0655  69.0020 15.69922766  3970,6737.255,91.724,362.396,355.844,0.0
56811.0,STARLINK-6063,PAYLOAD,2023-06-24 06:11:28,15.69945097,0.0003612,70.0012,345.8545,272.5139,87.5643,0.0005708,0.00069051,0.0,0 STARLINK-6063,1 56811U 23078AW  23175.25796560  .00069051  00000-0  57080-3 0  9993,2 56811  70.0012 345.8545 0003612 272.5139  87.5643 15.69945097  4077,6737.191,91.723,361.49,356.623,0.0
56811.0,STARLINK-6063,PAYLOAD,2023-06-24 13:50:13,15.69937709,0.0003771,70.0005,344.9565,273.3083,86.7681,0.00016789,0.00020036,0.0,0 STARLINK-6063,1 56811U 23078AW  23175.57654866  .00020036  00000-0  16789-3 0  9991,2 56811  70.0005 344.9565 0003771 273.3083  86.7681 15.69937709  4124,6737.212,91.723,361.618,356.537,0.0
56811.0,STARLINK-6063,PAYLOAD,2023-06-24 21:28:59,15.69935603,0.0003777,70.0005,344.0606,274.6498,85.4267,0.00011805,0.00014013,0.0,0 STARLINK-6063,1 56811U 23078AW  23175.89513135  .00014013  00000-0  11805-3 0  9991,2 56811  70.0005 344.0606 0003777 274.6498  85.4267 15.69935603  4173,6737.218,91.724,361.628,356.539,0.0
56811.0,STARLINK-6063,PAYLOAD,2023-06-25 06:39:30,15.69927253,0.0003273,70.0012,342.9893,264.5614,95.5208,3.7024e-05,4.242e-05,0.0,0 STARLINK-6063,1 56811U 23078AW  23176.27743376  .00004242  00000-0  37024-4 0  9991,2 56811  70.0012 342.9893 0003273 264.5614  95.5208 15.69927253  4231,6737.242,91.724,361.312,356.902,0.0
56811.0,STARLINK-6063,PAYLOAD,2023-06-26 10:11:02,15.69924432,0.000399,70.0002,339.761,268.4059,91.6679,6.4012e-05,7.492e-05,0.0,0 STARLINK-6063,1 56811U 23078AW  23177.42433610  .00007492  00000-0  64012-4 0  9993,2 56811  70.0002 339.7610 0003990 268.4059  91.6679 15.69924432  4418,6737.25,91.724,361.803,356.427,0.0
56811.0,STARLINK-6063,PAYLOAD,2023-06-27 18:17:50,15.69927054,0.0003617,69.9992,336.0019,267.0688,93.0094,2.199e-05,2.432e-05,0.0,0 STARLINK-6063,1 56811U 23078AW  23178.76238674  .00002432  00000-0  21990-4 0  9991,2 56811  69.9992 336.0019 0003617 267.0688  93.0094 15.69927054  4628,6737.243,91.724,361.545,356.671,0.0
56811.0,STARLINK-6063,PAYLOAD,2023-06-28 03:28:21,15.69919832,0.0003703,69.999,334.9271,269.7358,90.3414,3.6056e-06,2.21e-06,0.0,0 STARLINK-6063,1 56811U 23078AW  23179.14468964  .00000221  00000-0  36056-5 0  9995,2 56811  69.9990 334.9271 0003703 269.7358  90.3414 15.69919832  4689,6737.263,91.724,361.623,356.634,0.0
56811.0,STARLINK-6063,PAYLOAD,2023-06-28 17:14:06,15.69931676,0.0003711,69.9987,333.3149,270.6028,89.4743,2.5946e-05,2.909e-05,0.0,0 STARLINK-6063,1 56811U 23078AW  23179.71813593  .00002909  00000-0  25946-4 0  9990,2 56811  69.9987 333.3149 0003711 270.6028  89.4743 15.69931676  4770,6737.229,91.724,361.595,356.594,0.0
56811.0,STARLINK-6063,PAYLOAD,2023-06-29 05:28:08,15.69923983,0.000365,69.999,331.8803,269.4637,90.6141,1.2905e-05,1.339e-05,0.0,0 STARLINK-6063,1 56811U 23078AW  23180.22787343  .00001339  00000-0  12905-4 0  9998,2 56811  69.9990 331.8803 0003650 269.4637  90.6141 15.69923983  4855,6737.251,91.724,361.576,356.657,0.0
56811.0,STARLINK-6063,PAYLOAD,2023-06-30 16:38:26,15.69916128,0.0003879,69.9986,327.761,269.9195,90.1556,-1.6073e-05,-2.145e-05,0.0,0 STARLINK-6063,1 56811U 23078AW  23181.69336137 -.00002145  00000-0 -16073-4 0  9999,2 56811  69.9986 327.7610 0003879 269.9195  90.1556 15.69916128  5081,6737.274,91.725,361.752,356.526,0.0
56811.0,STARLINK-6063,PAYLOAD,2023-06-30 19:41:56,15.69927774,0.000386,69.9971,327.4026,268.4702,91.6052,4.4271e-06,3.19e-06,0.0,0 STARLINK-6063,1 56811U 23078AW  23181.82079032  .00000319  00000-0  44271-5 0  9993,2 56811  69.9971 327.4026 0003860 268.4702  91.6052 15.69927774  5100,6737.241,91.724,361.706,356.505,0.0
56811.0,STARLINK-6063,PAYLOAD,2023-07-02 09:55:44,15.69918903,0.0003866,69.9986,322.9233,267.3247,92.7506,1.2737e-05,1.319e-05,0.0,0 STARLINK-6063,1 56811U 23078AW  23183.41371180  .00001319  00000-0  12737-4 0  9991,2 56811  69.9986 322.9233 0003866 267.3247  92.7506 15.69918903  5351,6737.266,91.724,361.736,356.526,0.0
56811.0,STARLINK-6063,PAYLOAD,2023-07-02 16:02:44,15.69926456,0.0003887,69.997,322.2075,267.0024,93.0727,2.9543e-05,3.341e-05,0.0,0 STARLINK-6063,1 56811U 23078AW  23183.66857316  .00003341  00000-0  29543-4 0  9998,2 56811  69.9970 322.2075 0003887 267.0024  93.0727 15.69926456  5399,6737.244,91.724,361.728,356.491,0.0
56811.0,STARLINK-6063,PAYLOAD,2023-07-03 16:30:47,15.69925902,0.000358,69.9974,319.3392,267.9721,92.1064,7.2323e-06,6.57e-06,0.0,0 STARLINK-6063,1 56811U 23078AW  23184.68804504  .00000657  00000-0  72323-5 0  9994,2 56811  69.9974 319.3392 0003580 267.9721  92.1064 15.69925902  5552,6737.246,91.724,361.523,356.699,0.0
56811.0,STARLINK-6063,PAYLOAD,2023-07-04 09:20:03,15.69903924,0.0003753,69.9977,317.3682,270.5953,89.4812,6.1962e-05,7.238e-05,0.0,0 STARLINK-6063,1 56811U 23078AW  23185.38893143  .00007238  00000-0  61962-4 0  9997,2 56811  69.9977 317.3682 0003753 270.5953  89.4812 15.69903924  5666,6737.309,91.725,361.702,356.645,0.0
56811.0,STARLINK-6063,PAYLOAD,2023-07-04 16:58:48,15.69929484,0.0003596,69.999,316.4729,269.4507,90.6276,1.616e-05,1.731e-05,0.0,0 STARLINK-6063,1 56811U 23078AW  23185.70750903  .00001731  00000-0  16160-4 0  9991,2 56811  69.9990 316.4729 0003596 269.4507  90.6276 15.69929484  5713,6737.236,91.724,361.523,356.678,0.0
56811.0,STARLINK-6063,PAYLOAD,2023-07-05 02:09:19,15.69921193,0.0003767,69.999,315.3984,270.1767,89.8997,-1.3457e-05,-1.831e-05,0.0,0 STARLINK-6063,1 56811U 23078AW  23186.08981338 -.00001831  00000-0 -13457-4 0  9990,2 56811  69.9990 315.3984 0003767 270.1767  89.8997 15.69921193  5776,6737.259,91.724,361.662,356.587,0.0
56811.0,STARLINK-6063,PAYLOAD,2023-07-05 11:19:50,15.69925822,0.0003549,69.9971,314.3235,270.5275,89.5514,7.7734e-06,7.22e-06,0.0,0 STARLINK-6063,1 56811U 23078AW  23186.47211513  .00000722  00000-0  77734-5 0  9999,2 56811  69.9971 314.3235 0003549 270.5275  89.5514 15.69925822  5831,6737.246,91.724,361.502,356.72,0.0
56811.0,STARLINK-6063,PAYLOAD,2023-07-06 17:54:52,15.69935003,0.0003481,69.9989,310.7403,269.4118,90.6679,3.0597e-05,3.469e-05,0.0,0 STARLINK-6063,1 56811U 23078AW  23187.74644251  .00003469  00000-0  30597-4 0  9995,2 56811  69.9989 310.7403 0003481 269.4118  90.6679 15.69935003  6035,6737.22,91.724,361.43,356.74,0.0
56811.0,STARLINK-6063,PAYLOAD,2023-07-07 01:33:38,15.69918794,0.0003665,69.9988,309.8446,272.4767,87.6009,7.7721e-06,7.22e-06,0.0,0 STARLINK-6063,1 56811U 23078AW  23188.06503409  .00000722  00000-0  77721-5 0  9990,2 56811  69.9988 309.8446 0003665 272.4767  87.6009 15.69918794  6084,6737.266,91.724,361.601,356.662,0.0
56811.0,STARLINK-6063,PAYLOAD,2023-07-07 18:22:54,15.69932952,0.0003412,69.9988,307.8741,271.9265,88.154,3.0684e-05,3.48e-05,0.0,0 STARLINK-6063,1 56811U 23078AW  23188.76591186  .00003480  00000-0  30684-4 0  9996,2 56811  69.9988 307.8741 0003412 271.9265  88.1540 15.69932952  6197,6737.226,91.724,361.39,356.792,0.0
